GPS BIIF-7  (PRN 09)    
1 40105U 14045A   26094.75949234  .00000001  00000+0  00000+0 0  9997
2 40105  55.3044  91.3884 0031400 119.7821 240.5387  2.00553665 84602
GPS BIIF-8  (PRN 03)    
1 40294U 14068A   26095.13374774 -.00000083  00000+0  00000+0 0  9996
2 40294  56.9408  33.7696 0064296  68.3855 292.2862  2.00571825 83742
GPS BIIF-9  (PRN 26)    
1 40534U 15013A   26094.26958473  .00000003  00000+0  00000+0 0  9992
2 40534  53.1792 207.2341 0108818  39.9307 320.8601  2.00555779 80346
GPS BIIF-10 (PRN 08)    
1 40730U 15033A   26094.92809061 -.00000019  00000+0  00000+0 0  9991
2 40730  54.0412 270.1047 0114942  29.5880 331.0290  2.00560155 78520
GPS BIIF-11 (PRN 10)    
1 41019U 15062A   26093.49069273 -.00000091  00000+0  00000+0 0  9998
2 41019  56.9127  33.6891 0111291 231.5972 127.3862  2.00567162 76338
GPS BIIF-12 (PRN 32)    
1 41328U 16007A   26095.07316084  .00000003  00000+0  00000+0 0  9994
2 41328  55.4776  92.3565 0095993 246.7419 112.2530  2.00555330 74370
GPS BIII-1  (PRN 04)    
1 43873U 18109A   26094.46283441  .00000007  00000+0  00000+0 0  9992
2 43873  55.6365  95.0933 0037991 198.8846 333.1225  2.00558402 53596
GPS BIII-2  (PRN 18)    
1 44506U 19056A   26095.09796293 -.00000090  00000+0  00000+0 0  9995
2 44506  55.6701 334.0490 0058764 197.6004 334.4346  2.00569081 48601
GPS BIII-3  (PRN 23)    
1 45854U 20041A   26094.69425007 -.00000089  00000+0  00000+0 0  9993
2 45854  56.6255  31.7951 0061789 205.1546 336.5424  2.00560344 42565
GPS BIII-4  (PRN 14)    
1 46826U 20078A   26094.99361679  .00000005  00000+0  00000+0 0  9997
2 46826  53.9939 213.7458 0069932 205.1668 166.7977  2.00565254 40043
GPS BIII-5  (PRN 11)    
1 48859U 21054A   26087.05663564 -.00000088  00000+0  00000+0 0  9999
2 48859  55.2101 335.7223 0023817 231.1961 354.6747  2.00573996 35127
GPS BIII-6  (PRN 28)    
1 55268U 23009A   26087.18378093  .00000000  00000+0  00000+0 0  9990
2 55268  55.1104 151.7031 0005380 326.6502  28.0595  2.00547447 23616
GPS BIII-7  (PRN 01)    
1 62339U 24242A   26094.30669673 -.00000095  00000+0  00000+0 0  9991
2 62339  54.8790 337.1781 0016583   1.2127 180.4973  2.00570430  9770
GPS BIII-8  (PRN 21)    
1 64202U 25116A   26094.80204311 -.00000087  00000+0  00000+0 0  9993
2 64202  55.1880  34.0836 0008988 331.9615  31.0765  2.00551336  6405
GPS BIII-9  (PRN 20)    
1 67588U 26017A   26094.40943240  .00000001  00000+0  00000+0 0  9996
2 67588  55.0405  91.7145 0024436 250.4586 109.2865  2.00553521430136
